OBJECT_NAME,OBJECT_ID,EPOCH,MEAN_MOTION,ECCENTRICITY,INCLINATION,RA_OF_ASC_NODE,ARG_OF_PERICENTER,MEAN_ANOMALY,EPHEMERIS_TYPE,CLASSIFICATION_TYPE,NORAD_CAT_ID,ELEMENT_SET_NO,REV_AT_EPOCH,BSTAR,MEAN_MOTION_DOT,MEAN_MOTION_DDOT
LEMUR-1,2014-033AL,2026-07-21T15:37:48.107136,14.85349700,.00472517,97.7917,351.7008,326.4372,33.3852,0,U,40044,999,65058,.1369179E-3,.1145E-4,0
LEMUR-2-GREENBERG,2017-042N,2026-07-22T18:04:28.210656,15.32329535,.00076261,97.3840,24.2447,228.2154,131.8437,0,U,42837,999,49383,.58440758E-3,.18203E-3,0
LEMUR-2-ANDIS,2017-042P,2026-07-22T21:25:27.621984,15.36167769,.00076254,97.3692,24.6976,226.7644,133.2964,0,U,42838,999,49393,.72202952E-3,.2544E-3,0
LEMUR-2-MONSON,2017-042Q,2026-07-22T20:09:40.764096,15.28916242,.0005852,97.4103,24.2472,214.1377,145.9487,0,U,42839,999,49361,.68624582E-3,.19239E-3,0
LEMUR-2-FURIAUS,2017-042R,2026-07-22T18:30:19.130400,15.31313270,.0005635,97.3787,22.1377,297.0956,62.9710,0,U,42840,999,49365,.64535199E-3,.19477E-3,0
LEMUR-2-PETERG,2017-042S,2026-07-22T07:28:31.725984,15.35223729,.0003874,97.4004,28.4368,191.0244,169.0915,0,U,42841,999,49382,.66383213E-3,.22664E-3,0
LEMUR-2-DEMBITZ,2017-042T,2026-07-22T00:09:43.918848,15.31253266,.00052746,97.3839,24.4256,243.5314,116.5387,0,U,42842,999,49367,.58479899E-3,.17604E-3,0
LEMUR-2-ZACHARY,2017-042W,2026-07-22T20:22:26.459904,15.53295291,.0003079,97.3582,36.3221,214.3882,145.7173,0,U,42845,999,49473,.98230264E-3,.62205E-3,0
LEMUR-2-AMANDA-SVANTE,2021-034B,2026-07-22T16:21:19.092672,15.36308179,.00047708,97.5743,282.9541,126.4955,233.6728,0,U,48269,999,28650,.96997958E-3,.34377E-3,0
LEMUR-2-SPECIAL-K,2021-034F,2026-07-22T12:11:14.170560,15.77833093,.0006148,97.5623,293.2632,211.9192,148.1703,0,U,48273,999,28723,.17880834E-2,.310609E-2,0
LEMUR-2-EMBRIONOVIS,2023-084AQ,2026-07-22T09:36:39.168576,15.38367572,.00088903,97.6329,348.9822,180.3852,179.7387,0,U,56970,999,17309,.39879839E-3,.1503E-3,0
LEMUR-2-DEVERILL-M-T,2023-100F,2026-07-22T13:36:50.590944,15.41359875,.00048612,99.4449,252.5916,266.5325,93.5359,0,U,57391,999,16669,.68141641E-3,.28403E-3,0
LEMUR-2-BASS,2023-174D,2026-07-22T05:09:21.459744,15.44161059,.0007139,97.3836,288.4427,57.0694,303.1240,0,U,58259,999,15076,.40287576E-3,.18409E-3,0
LEMUR-2-JK0903EM1407,2023-174CJ,2026-07-22T17:18:28.022688,15.53365971,.00028798,97.3917,295.2372,0.1689,359.9564,0,U,58336,999,15124,.46017029E-3,.29041E-3,0
LEMUR-2-MJR092620,2023-174CN,2026-07-22T21:33:47.096928,15.46076593,.00045171,97.3967,294.6160,0.8116,359.3139,0,U,58340,999,15116,.44344823E-3,.21635E-3,0
LEMUR-2-NIMBUS2000,2024-022A,2026-07-22T20:45:21.208320,15.41359662,.00078935,97.4081,54.3440,1.5254,358.6016,0,U,58899,999,13776,.6210343E-3,.25909E-3,0
LEMUR-2-VALHALLA,2024-022B,2026-07-22T13:09:25.385472,15.40649804,.00084318,97.4084,53.9852,357.9384,2.1826,0,U,58900,999,13771,.41620859E-3,.16915E-3,0
LEMUR-2-CAEL,2024-022E,2026-07-22T20:26:28.966560,15.42046949,.00062969,97.4063,55.2932,340.1607,19.9394,0,U,58903,999,13783,.46481546E-3,.19795E-3,0
LEMUR-2-JOHNNYTRUONG,2024-043BA,2026-07-22T21:38:17.906496,15.63055792,.00036625,97.5397,357.8950,66.7788,293.3855,0,U,59146,999,13361,.54920985E-3,.50008E-3,0
LEMUR-2-TOMATOKECHUP,2024-149D,2026-07-22T11:21:10.254240,15.36689210,.00034425,97.3786,285.6244,109.2295,250.9322,0,U,60471,999,10758,.32304117E-3,.115E-3,0
LEMUR-2-STELLA,2024-149BT,2026-07-22T16:22:27.124032,15.12482958,.00015015,97.6726,286.3083,121.6728,238.4648,0,U,60533,999,10586,.67449338E-3,.11681E-3,0
LEMUR-2-MARHISYAM,2024-149BW,2026-07-22T05:06:28.564704,15.11867364,.00021285,97.6869,286.3201,58.8291,301.3148,0,U,60536,999,10577,.59472169E-3,.10114E-3,0
LEMUR-2-AHMED-ASRAR,2024-149DN,2026-07-22T11:26:26.479104,15.13417372,.00018456,97.6993,288.8178,178.9273,181.1962,0,U,60576,999,10590,.68476123E-3,.12174E-3,0
LEMUR-2-LLOYD,2024-149DP,2026-07-22T16:53:53.686176,15.09849237,.00041249,97.6736,284.8654,51.6067,308.5532,0,U,60577,999,10575,.69451176E-3,.11184E-3,0
LEMUR-2-SQUIRRELCOMM,2024-149DQ,2026-07-22T04:09:28.674720,15.07496745,.00039732,97.6700,283.9805,293.1589,66.9220,0,U,60578,999,10567,.41251545E-3,.6199E-4,0
LEMUR-2-SIERRINI,2024-149DR,2026-07-22T16:57:05.145984,15.11623778,.00060567,97.6832,286.4706,70.5885,289.5999,0,U,60579,999,10582,.73970429E-3,.1252E-3,0
LEMUR-2-WILSON,2025-009CP,2026-07-22T03:52:22.044864,14.95296152,.0001562,97.7015,281.0127,282.8389,77.2657,0,U,62694,999,8258,.18779581E-3,.2012E-4,0
LEMUR-2-STAR-FOX,2025-009CR,2026-07-22T15:36:43.182720,15.02914232,.00014189,97.6903,285.0039,11.0222,349.1034,0,U,62696,999,8288,.59689529E-3,.7956E-4,0
LEMUR-2-ARIANNA,2025-009CU,2026-07-22T04:23:22.458912,15.02911553,.00018268,97.6845,284.2864,23.9997,336.1313,0,U,62699,999,8281,.60161092E-3,.8019E-4,0
LEMUR-2-ALISIA,2025-009DB,2026-07-22T16:28:10.582176,15.03251783,.00050149,97.6958,285.6256,109.8990,250.2776,0,U,62706,999,10549,.59508041E-3,.8005E-4,0
